satname,norad_id,inclination_deg,eccentricity,mean_motion_rev_per_day,perigee_km,apogee_km,l1,l2
STARLINK-1573,46061,53.1596,0.0001116,15.31693967,469.99364266405064,471.5223160234409,1 46061U 20055AL  26194.46855746  .00000376  00000+0  23884-4 0  9990,2 46061  53.1596 248.6589 0001116  67.8806 292.2314 15.31693967328347
STARLINK-1577,46063,53.1575,0.0004066,15.31649866,468.1046319942825,473.67426030029037,1 46063U 20055AN  26194.43129232  .00023814  00000+0  77781-3 0  9999,2 46063  53.1575 248.8275 0004066  88.0358 272.1109 15.31649866328331
STARLINK-1583,46064,53.1601,0.0001343,15.31690409,469.84877762660744,471.6883936669119,1 46064U 20055AP  26194.44530860 -.00000279  00000+0  27641-5 0  9997,2 46064  53.1601 249.2647 0001343 103.0831 257.0321 15.31690409328325
STARLINK-1536,46070,53.158,0.0001047,15.31694289,470.0399402685289,471.4740986762072,1 46070U 20055AV  26194.51185287  .00001606  00000+0  63513-4 0  9992,2 46070  53.1580 236.3387 0001047  97.4305 262.6815 15.31694289328510
STARLINK-1542,46073,53.1582,0.0001187,15.31703159,469.9176178456537,471.5435390087723,1 46073U 20055AY  26194.60147401  .00001930  00000+0  73950-4 0  9997,2 46073  53.1582 238.8910 0001187  72.2376 287.8755 15.31703159328472
STARLINK-1549,46074,53.0476,0.0002126,15.34412803,461.21083271257885,464.1195418026,1 46074U 20055AZ  26194.48036868  .00019353  00000+0  58216-3 0  9993,2 46074  53.0476 236.0287 0002126  34.6424 325.4715 15.34412803328483
STARLINK-1551,46075,53.1589,0.0001277,15.31695706,469.878192219232,471.6273986729884,1 46075U 20055BA  26194.43761703 -.00000798  00000+0 -13966-4 0  9991,2 46075  53.1589 236.6233 0001277  75.3557 284.7586 15.31695706328498
STARLINK-1552,46076,53.1579,0.0001227,15.31701173,469.8961417976425,471.57685535419205,1 46076U 20055BB  26194.48882715  .00003453  00000+0  12298-3 0  9999,2 46076  53.1579 235.9659 0001227  78.6035 281.5104 15.31701173328491
STARLINK-1559,46077,53.0223,0.0004436,15.41664958,438.17003860683326,444.22015004091827,1 46077U 20055BC  26194.35709321  .00033060  00000+0  77834-3 0  9991,2 46077  53.0223 203.4287 0004436  19.8400 340.2776 15.41664958328894
STARLINK-1566,46079,53.1587,0.000103,15.31691081,470.0611453605634,471.4720194985439,1 46079U 20055BE  26194.49346955  .00000234  00000+0  19304-4 0  9994,2 46079  53.1587 235.7986 0001030  99.7729 260.3389 15.31691081328519
STARLINK-1568,46080,53.0556,0.0003149,15.57272049,393.4230586968206,397.68913060783234,1 46080U 20055BF  26194.27398034  .00032668  00000+0  44479-3 0  9993,2 46080  53.0556 148.8277 0003149 103.9657 256.1704 15.57272049329695
STARLINK-1578,46082,53.1596,0.0001078,15.31689374,470.0333586071083,471.50998331656865,1 46082U 20055BH  26194.43261408 -.00000156  00000+0  67402-5 0  9998,2 46082  53.1596 236.5998 0001078  84.8948 275.2177 15.31689374328494
STARLINK-1579,46083,53.1583,0.0001183,15.31699767,469.9304675559097,471.55091201731284,1 46083U 20055BJ  26194.48415057  .00001372  00000+0  55975-4 0  9996,2 46083  53.1583 235.8930 0001183  77.2884 282.8249 15.31699767328504
STARLINK-1622,46128,53.0069,0.001266,16.0979352,239.0218387269597,255.79772317632887,1 46128U 20057M   26194.56999058  .00662260  24281-3  68824-3 0  9991,2 46128  53.0069 312.7227 0012660 317.9077  42.0982 16.09793520327255
STARLINK-1623,46129,53.0356,0.0003144,15.8632627,310.4893195757686,314.6964505274891,1 46129U 20057N   26194.66668981  .00032780  00000+0  13070-3 0  9991,2 46129  53.0356 354.4289 0003144 275.9919  38.7670 15.86326270  5911
STARLINK-1596,46141,53.0333,0.0001914,15.6614825,368.6468453558027,371.2300086292553,1 46141U 20057AA  26194.63885637  .00045082  00000+0  43330-3 0  9992,2 46141  53.0333 341.4906 0001914 219.3246 140.7630 15.66148250326879
STARLINK-1597,46142,53.0363,0.0004304,15.84860763,313.8353578260676,319.59828799682964,1 46142U 20057AB  26194.66668981  .00021879  00000+0  94741-4 0  9998,2 46142  53.0363  34.3601 0004304 232.5371 124.6496 15.84860763  6017
STARLINK-1608,46146,53.1565,0.0005044,15.39437062,444.3298780433697,451.2158559171803,1 46146U 20057AF  26194.20902045  .00035311  00000+0  89373-3 0  9994,2 46146  53.1565  83.0550 0005044 102.2532 257.9038 15.39437062325449
STARLINK-1595,46159,53.0371,0.0003652,15.81624198,323.39878196989594,328.2953719397037,1 46159U 20057AU  26194.66668981  .00029064  00000+0  14515-3 0  9990,2 46159  53.0371  37.7891 0003652 207.0664   1.4403 15.81624198  5699
STARLINK-1598,46160,53.0427,0.000347,15.79770049,328.76351644069837,333.41972110212646,1 46160U 20057AV  26193.80142383  .00117862  00000+0  62297-3 0  9994,2 46160  53.0427  28.5291 0003470 293.3324  66.7332 15.79770049327386
STARLINK-1626,46167,53.0362,0.0005486,15.85286571,311.84580490135886,319.19008310591835,1 46167U 20057BC  26193.95168138  .00163890  00000+0  66420-3 0  9997,2 46167  53.0362  36.1391 0005486 256.3365 103.7047 15.85286571326046
STARLINK-1633,46171,53.0262,0.0011233,16.02644922,259.63273977518475,274.56192322433253,1 46171U 20057BG  26194.59158563  .00426643  92193-4  69582-3 0  9993,2 46171  53.0262 350.9673 0011233 303.2991  56.6963 16.02644922327989
STARLINK-1640,46173,53.0364,0.0003109,15.81832736,323.1737736323612,327.3419445557456,1 46173U 20057BJ  26194.60013153  .00121088  00000+0  58188-3 0  9998,2 46173  53.0364  39.1218 0003109 213.5311 146.5514 15.81832736326053
STARLINK-1641,46174,53.0448,0.0003062,15.68473252,361.20395682158505,365.33239335080816,1 46174U 20057BK  26193.83619033  .00063230  00000+0  54991-3 0  9994,2 46174  53.0448  37.5336 0003062 257.9166 102.1507 15.68473252326013
STARLINK-1695,46329,53.0386,0.0004546,15.857569,311.1520043200617,317.23667197270424,1 46329U 20062E   26194.66668981  .00096779  00000+0  38770-3 0  9991,2 46329  53.0386  75.4108 0004546 237.7235 108.4644 15.85756900  6014
STARLINK-1719,46331,53.0272,0.0006772,15.9907293,272.4828346454424,281.49653822955315,1 46331U 20062G   26194.66668981  .00379591  71532-4  76605-3 0  9992,2 46331  53.0272  72.5826 0006772 237.1208 297.9380 15.99072930  5922
STARLINK-1759,46340,53.0026,0.00071,16.11670727,237.56352285139383,246.96449228213805,1 46340U 20062R   26194.52864858  .00853974  43253-3  79160-3 0  9997,2 46340  53.0026  61.2761 0007100 250.1894 109.8374 16.11670727324802
STARLINK-1762,46342,53.152,0.0004308,15.41475983,438.81441195628304,444.6904286808285,1 46342U 20062T   26194.23193509  .00037877  00000+0  89549-3 0  9992,2 46342  53.1520 143.1152 0004308  27.2419 332.8811 15.41475983323689
